[{"OBJECT_NAME":"STARLINK-35672","OBJECT_ID":"2025-257Q","EPOCH":"2026-03-09T16:46:37.162272","MEAN_MOTION":15.30195738,"ECCENTRICITY":7.92e-5,"INCLINATION":53.1577,"RA_OF_ASC_NODE":217.0685,"ARG_OF_PERICENTER":71.3632,"MEAN_ANOMALY":288.7455,"EPHEMERIS_TYPE":0,"CLASSIFICATION_TYPE":"U","NORAD_CAT_ID":66394,"ELEMENT_SET_NO":999,"REV_AT_EPOCH":1973,"BSTAR":0.00087337449,"MEAN_MOTION_DOT":0.00025593,"MEAN_MOTION_DDOT":0},{"OBJECT_NAME":"OBJECT A","OBJECT_ID":"2025-234A","EPOCH":"2026-03-09T23:03:34.210368","MEAN_MOTION":15.32505956,"ECCENTRICITY":0.00130678,"INCLINATION":97.4388,"RA_OF_ASC_NODE":139.352,"ARG_OF_PERICENTER":148.634,"MEAN_ANOMALY":211.5684,"EPHEMERIS_TYPE":0,"CLASSIFICATION_TYPE":"U","NORAD_CAT_ID":66053,"ELEMENT_SET_NO":999,"REV_AT_EPOCH":2164,"BSTAR":0.0014840662,"MEAN_MOTION_DOT":0.00046856,"MEAN_MOTION_DDOT":0}]
